{"type": "FeatureCollection", "features": [ {"type": "Feature", "properties": {"norad_id": 35671, "name": "COSMOS 2251 DEB", "group": "cosmos-2251-debris", "lat": 65.34567016720699, "lon": 133.74440071674243, "alt_km": 752.2409834941582, "timestamp": "2025-12-04T07:39:36.528153+00:00", "meta": {"OBJECT_NAME": "COSMOS 2251 DEB", "OBJECT_ID": "1993-036APN", "EPOCH": "2025-12-03T02:19:30.985824", "MEAN_MOTION": 14.48319371, "ECCENTRICITY": 0.00415489, "INCLINATION": 74.0174, "RA_OF_ASC_NODE": 97.3946, "ARG_OF_PERICENTER": 273.0899, "MEAN_ANOMALY": 267.4122, "EPHEMERIS_TYPE": 0, "CLASSIFICATION_TYPE": "U", "NORAD_CAT_ID": 35671, "ELEMENT_SET_NO": 999, "REV_AT_EPOCH": 86623, "BSTAR": 0.0003210329, "MEAN_MOTION_DOT": 1.185e-05, "MEAN_MOTION_DDOT": 0}, "tle": {"line1": "1 35671U 93036APN 25337.09688641  .00001185  00000+0  32103-3 0  9991", "line2": "2 35671  74.0174  97.3946 0041548 273.0899 267.4122 14.48319371866235"}}, "geometry": {"type": "Point", "coordinates": [133.74440071674243, 65.34567016720699]}}, {"type": "Feature", "properties": {"norad_id": 35674, "name": "COSMOS 2251 DEB", "group": "cosmos-2251-debris", "lat": 44.38972786914575, "lon": 136.16178344002395, "alt_km": 735.8232819087943, "timestamp": "2025-12-04T07:39:36.528162+00:00", "meta": {"OBJECT_NAME": "COSMOS 2251 DEB", "OBJECT_ID": "1993-036APR", "EPOCH": "2025-12-03T09:35:18.702528", "MEAN_MOTION": 14.53954759, "ECCENTRICITY": 0.00960335, "INCLINATION": 74.0596, "RA_OF_ASC_NODE": 334.1441, "ARG_OF_PERICENTER": 21.1358, "MEAN_ANOMALY": 339.3729, "EPHEMERIS_TYPE": 0, "CLASSIFICATION_TYPE": "U", "NORAD_CAT_ID": 35674, "ELEMENT_SET_NO": 999, "REV_AT_EPOCH": 85975, "BSTAR": 0.0022565509, "MEAN_MOTION_DOT": 0.00010089, "MEAN_MOTION_DDOT": 0}, "tle": {"line1": "1 35674U 93036APR 25337.39952202  .00010089  00000+0  22566-2 0  9998", "line2": "2 35674  74.0596 334.1441 0096033  21.1358 339.3729 14.53954759859751"}}, "geometry": {"type": "Point", "coordinates": [136.16178344002395, 44.38972786914575]}}, {"type": "Feature", "properties": {"norad_id": 35703, "name": "COSMOS 2251 DEB", "group": "cosmos-2251-debris", "lat": 69.7451562968294, "lon": 110.45402810631407, "alt_km": 563.9973716944187, "timestamp": "2025-12-04T07:39:36.528171+00:00", "meta": {"OBJECT_NAME": "COSMOS 2251 DEB", "OBJECT_ID": "1993-036APY", "EPOCH": "2025-12-03T11:58:43.085856", "MEAN_MOTION": 14.90122639, "ECCENTRICITY": 0.00654009, "INCLINATION": 74.0435, "RA_OF_ASC_NODE": 61.2566, "ARG_OF_PERICENTER": 134.2302, "MEAN_ANOMALY": 226.4277, "EPHEMERIS_TYPE": 0, "CLASSIFICATION_TYPE": "U", "NORAD_CAT_ID": 35703, "ELEMENT_SET_NO": 999, "REV_AT_EPOCH": 66478, "BSTAR": 0.0011722584, "MEAN_MOTION_DOT": 0.00011791, "MEAN_MOTION_DDOT": 0}, "tle": {"line1": "1 35703U 93036APY 25337.49910979  .00011791  00000+0  11723-2 0  9991", "line2": "2 35703  74.0435  61.2566 0065400 134.2302 226.4277 14.90122639664787"}}, "geometry": {"type": "Point", "coordinates": [110.45402810631407, 69.7451562968294]}}, {"type": "Feature", "properties": {"norad_id": 35705, "name": "COSMOS 2251 DEB", "group": "cosmos-2251-debris", "lat": 50.495104177893936, "lon": 171.9368333771584, "alt_km": 636.40481816786, "timestamp": "2025-12-04T07:39:36.528180+00:00", "meta": {"OBJECT_NAME": "COSMOS 2251 DEB", "OBJECT_ID": "1993-036AQA", "EPOCH": "2025-12-03T05:18:59.084352", "MEAN_MOTION": 14.71707631, "ECCENTRICITY": 0.0034156, "INCLINATION": 74.2742, "RA_OF_ASC_NODE": 154.0557, "ARG_OF_PERICENTER": 110.0272, "MEAN_ANOMALY": 250.4584, "EPHEMERIS_TYPE": 0, "CLASSIFICATION_TYPE": "U", "NORAD_CAT_ID": 35705, "ELEMENT_SET_NO": 999, "REV_AT_EPOCH": 85786, "BSTAR": 0.0035867, "MEAN_MOTION_DOT": 0.00022615, "MEAN_MOTION_DDOT": 0}, "tle": {"line1": "1 35705U 93036AQA 25337.22151718  .00022615  00000+0  35867-2 0  9994", "line2": "2 35705  74.2742 154.0557 0034156 110.0272 250.4584 14.71707631857866"}}, "geometry": {"type": "Point", "coordinates": [171.9368333771584, 50.495104177893936]}}, {"type": "Feature", "properties": {"norad_id": 35706, "name": "COSMOS 2251 DEB", "group": "cosmos-2251-debris", "lat": -66.05106822313988, "lon": 36.121660820023216, "alt_km": 1257.54707346734, "timestamp": "2025-12-04T07:39:36.528189+00:00", "meta": {"OBJECT_NAME": "COSMOS 2251 DEB", "OBJECT_ID": "1993-036AQB", "EPOCH": "2025-12-01T13:14:17.826144", "MEAN_MOTION": 13.65877076, "ECCENTRICITY": 0.03419141, "INCLINATION": 73.888, "RA_OF_ASC_NODE": 81.2903, "ARG_OF_PERICENTER": 133.1878, "MEAN_ANOMALY": 229.8353, "EPHEMERIS_TYPE": 0, "CLASSIFICATION_TYPE": "U", "NORAD_CAT_ID": 35706, "ELEMENT_SET_NO": 999, "REV_AT_EPOCH": 61909, "BSTAR": 0.0013112957, "MEAN_MOTION_DOT": 1.587e-05, "MEAN_MOTION_DDOT": 0}, "tle": {"line1": "1 35706U 93036AQB 25335.55159521  .00001587  00000+0  13113-2 0  9994", "line2": "2 35706  73.8880  81.2903 0341914 133.1878 229.8353 13.65877076619090"}}, "geometry": {"type": "Point", "coordinates": [36.121660820023216, -66.05106822313988]}}, {"type": "Feature", "properties": {"norad_id": 35711, "name": "COSMOS 2251 DEB", "group": "cosmos-2251-debris", "lat": -73.14444953880968, "lon": 165.85824248216903, "alt_km": 661.4130149217299, "timestamp": "2025-12-04T07:39:36.528198+00:00", "meta": {"OBJECT_NAME": "COSMOS 2251 DEB", "OBJECT_ID": "1993-036AQG", "EPOCH": "2025-12-03T10:42:59.376384", "MEAN_MOTION": 14.6375433, "ECCENTRICITY": 0.00851107, "INCLINATION": 74.0469, "RA_OF_ASC_NODE": 238.2893, "ARG_OF_PERICENTER": 341.5514, "MEAN_ANOMALY": 18.2571, "EPHEMERIS_TYPE": 0, "CLASSIFICATION_TYPE": "U", "NORAD_CAT_ID": 35711, "ELEMENT_SET_NO": 999, "REV_AT_EPOCH": 87635, "BSTAR": 0.00046916843, "MEAN_MOTION_DOT": 2.545e-05, "MEAN_MOTION_DDOT": 0}, "tle": {"line1": "1 35711U 93036AQG 25337.44652056  .00002545  00000+0  46917-3 0  9995", "line2": "2 35711  74.0469 238.2893 0085110 341.5514  18.2571 14.63754330876351"}}, "geometry": {"type": "Point", "coordinates": [165.85824248216903, -73.14444953880968]}}, {"type": "Feature", "properties": {"norad_id": 35716, "name": "COSMOS 2251 DEB", "group": "cosmos-2251-debris", "lat": 65.43497059877964, "lon": -8.586314595783337, "alt_km": 650.2495382567859, "timestamp": "2025-12-04T07:39:36.528207+00:00", "meta": {"OBJECT_NAME": "COSMOS 2251 DEB", "OBJECT_ID": "1993-036AQM", "EPOCH": "2025-12-02T22:21:42.031872", "MEAN_MOTION": 14.60067337, "ECCENTRICITY": 0.00884366, "INCLINATION": 73.9934, "RA_OF_ASC_NODE": 212.9707, "ARG_OF_PERICENTER": 56.5126, "MEAN_ANOMALY": 321.7811, "EPHEMERIS_TYPE": 0, "CLASSIFICATION_TYPE": "U", "NORAD_CAT_ID": 35716, "ELEMENT_SET_NO": 999, "REV_AT_EPOCH": 87484, "BSTAR": 0.00016847867, "MEAN_MOTION_DOT": 8.23e-06, "MEAN_MOTION_DDOT": 0}, "tle": {"line1": "1 35716U 93036AQM 25336.93173648  .00000823  00000+0  16848-3 0  9995", "line2": "2 35716  73.9934 212.9707 0088436  56.5126 321.7811 14.60067337874842"}}, "geometry": {"type": "Point", "coordinates": [-8.586314595783337, 65.43497059877964]}}, {"type": "Feature", "properties": {"norad_id": 35717, "name": "COSMOS 2251 DEB", "group": "cosmos-2251-debris", "lat": 6.184122427696018, "lon": 51.13578141242028, "alt_km": 754.1554273748052, "timestamp": "2025-12-04T07:39:36.528216+00:00", "meta": {"OBJECT_NAME": "COSMOS 2251 DEB", "OBJECT_ID": "1993-036AQN", "EPOCH": "2025-12-03T10:50:01.737600", "MEAN_MOTION": 14.38379287, "ECCENTRICITY": 0.00765766, "INCLINATION": 74.1608, "RA_OF_ASC_NODE": 234.4851, "ARG_OF_PERICENTER": 96.9396, "MEAN_ANOMALY": 264.0477, "EPHEMERIS_TYPE": 0, "CLASSIFICATION_TYPE": "U", "NORAD_CAT_ID": 35717, "ELEMENT_SET_NO": 999, "REV_AT_EPOCH": 73966, "BSTAR": 0.0017319634, "MEAN_MOTION_DOT": 5.441e-05, "MEAN_MOTION_DDOT": 0}, "tle": {"line1": "1 35717U 93036AQN 25337.45140900  .00005441  00000+0  17320-2 0  9995", "line2": "2 35717  74.1608 234.4851 0076576  96.9396 264.0477 14.38379287739664"}}, "geometry": {"type": "Point", "coordinates": [51.13578141242028, 6.184122427696018]}}, {"type": "Feature", "properties": {"norad_id": 35718, "name": "COSMOS 2251 DEB", "group": "cosmos-2251-debris", "lat": 73.0130611737245, "lon": -144.1235208939769, "alt_km": 661.9559997313718, "timestamp": "2025-12-04T07:39:36.528225+00:00", "meta": {"OBJECT_NAME": "COSMOS 2251 DEB", "OBJECT_ID": "1993-036AQP", "EPOCH": "2025-11-28T18:49:36.496416", "MEAN_MOTION": 14.68279459, "ECCENTRICITY": 0.00123436, "INCLINATION": 74.0315, "RA_OF_ASC_NODE": 156.9668, "ARG_OF_PERICENTER": 206.7375, "MEAN_ANOMALY": 153.316, "EPHEMERIS_TYPE": 0, "CLASSIFICATION_TYPE": "U", "NORAD_CAT_ID": 35718, "ELEMENT_SET_NO": 999, "REV_AT_EPOCH": 65635, "BSTAR": 0.0013999458, "MEAN_MOTION_DOT": 8.062e-05, "MEAN_MOTION_DDOT": 0}, "tle": {"line1": "1 35718U 93036AQP 25332.78445019  .00008062  00000+0  13999-2 0  9996", "line2": "2 35718  74.0315 156.9668 0012343 206.7375 153.3160 14.68279459656359"}}, "geometry": {"type": "Point", "coordinates": [-144.1235208939769, 73.0130611737245]}}, {"type": "Feature", "properties": {"norad_id": 35721, "name": "COSMOS 2251 DEB", "group": "cosmos-2251-debris", "lat": 59.558065992398596, "lon": -137.42425325716738, "alt_km": 756.4377122203505, "timestamp": "2025-12-04T07:39:36.528234+00:00", "meta": {"OBJECT_NAME": "COSMOS 2251 DEB", "OBJECT_ID": "1993-036AQS", "EPOCH": "2025-11-29T21:54:16.243200", "MEAN_MOTION": 14.34192363, "ECCENTRICITY": 0.01464404, "INCLINATION": 73.9503, "RA_OF_ASC_NODE": 201.3539, "ARG_OF_PERICENTER": 350.3358, "MEAN_ANOMALY": 9.498, "EPHEMERIS_TYPE": 0, "CLASSIFICATION_TYPE": "U", "NORAD_CAT_ID": 35721, "ELEMENT_SET_NO": 999, "REV_AT_EPOCH": 57605, "BSTAR": 0.0014885779, "MEAN_MOTION_DOT": 4.68e-05, "MEAN_MOTION_DDOT": 0}, "tle": {"line1": "1 35721U 93036AQS 25333.91268800  .00004680  00000+0  14886-2 0  9995", "line2": "2 35721  73.9503 201.3539 0146440 350.3358   9.4980 14.34192363576055"}}, "geometry": {"type": "Point", "coordinates": [-137.42425325716738, 59.558065992398596]}}]}